{"type": "FeatureCollection", "features": [ {"type": "Feature", "properties": {"norad_id": 66634, "name": "STARLINK-35967", "group": "last-30-days", "lat": -51.428903631801894, "lon": 36.63121074136728, "alt_km": 454.6943805489973, "timestamp": "2025-12-21T07:34:33.300495+00:00", "meta": {"OBJECT_NAME": "STARLINK-35967", "OBJECT_ID": "2025-271T", "EPOCH": "2025-12-20T17:59:52.802880", "MEAN_MOTION": 15.39645146, "ECCENTRICITY": 0.00042982, "INCLINATION": 53.1604, "RA_OF_ASC_NODE": 149.2275, "ARG_OF_PERICENTER": 61.7482, "MEAN_ANOMALY": 298.3957, "EPHEMERIS_TYPE": 0, "CLASSIFICATION_TYPE": "U", "NORAD_CAT_ID": 66634, "ELEMENT_SET_NO": 999, "REV_AT_EPOCH": 540, "BSTAR": 0.00065033144, "MEAN_MOTION_DOT": 0.00025727, "MEAN_MOTION_DDOT": 0}, "tle": {"line1": "1 66634U 25271T   25354.74991670  .00025727  00000+0  65033-3 0  9996", "line2": "2 66634  53.1604 149.2275 0004298  61.7482 298.3957 15.39645146  5403"}}, "geometry": {"type": "Point", "coordinates": [36.63121074136728, -51.428903631801894]}}, {"type": "Feature", "properties": {"norad_id": 66635, "name": "STARLINK-35955", "group": "last-30-days", "lat": -38.394240829374596, "lon": 110.01257773906046, "alt_km": 452.0143913560196, "timestamp": "2025-12-21T07:34:33.300504+00:00", "meta": {"OBJECT_NAME": "STARLINK-35955", "OBJECT_ID": "2025-271U", "EPOCH": "2025-12-20T22:00:01.999584", "MEAN_MOTION": 15.39592431, "ECCENTRICITY": 0.00011296, "INCLINATION": 53.1593, "RA_OF_ASC_NODE": 148.3423, "ARG_OF_PERICENTER": 80.7633, "MEAN_ANOMALY": 175.794, "EPHEMERIS_TYPE": 0, "CLASSIFICATION_TYPE": "U", "NORAD_CAT_ID": 66635, "ELEMENT_SET_NO": 999, "REV_AT_EPOCH": 555, "BSTAR": 0.0013929357, "MEAN_MOTION_DOT": 0.00055674, "MEAN_MOTION_DDOT": 0}, "tle": {"line1": "1 66635U 25271U   25354.91668981  .00055674  00000+0  13929-2 0  9992", "line2": "2 66635  53.1593 148.3423 0001129  80.7633 175.7940 15.39592431  5559"}}, "geometry": {"type": "Point", "coordinates": [110.01257773906046, -38.394240829374596]}}, {"type": "Feature", "properties": {"norad_id": 66636, "name": "STARLINK-35968", "group": "last-30-days", "lat": -51.11389375367705, "lon": 78.13817806808538, "alt_km": 452.3044658716808, "timestamp": "2025-12-21T07:34:33.300515+00:00", "meta": {"OBJECT_NAME": "STARLINK-35968", "OBJECT_ID": "2025-271V", "EPOCH": "2025-12-20T22:00:01.999584", "MEAN_MOTION": 15.39594294, "ECCENTRICITY": 6.955e-05, "INCLINATION": 53.1596, "RA_OF_ASC_NODE": 148.3925, "ARG_OF_PERICENTER": 60.9297, "MEAN_ANOMALY": 169.8719, "EPHEMERIS_TYPE": 0, "CLASSIFICATION_TYPE": "U", "NORAD_CAT_ID": 66636, "ELEMENT_SET_NO": 999, "REV_AT_EPOCH": 555, "BSTAR": 0.0014488415, "MEAN_MOTION_DOT": 0.00057945, "MEAN_MOTION_DDOT": 0}, "tle": {"line1": "1 66636U 25271V   25354.91668981  .00057945  00000+0  14488-2 0  9997", "line2": "2 66636  53.1596 148.3925 0000695  60.9297 169.8719 15.39594294  5550"}}, "geometry": {"type": "Point", "coordinates": [78.13817806808538, -51.11389375367705]}}, {"type": "Feature", "properties": {"norad_id": 66637, "name": "STARLINK-35953", "group": "last-30-days", "lat": -19.912190104436554, "lon": 130.65098981139982, "alt_km": 450.3588640584303, "timestamp": "2025-12-21T07:34:33.300524+00:00", "meta": {"OBJECT_NAME": "STARLINK-35953", "OBJECT_ID": "2025-271W", "EPOCH": "2025-12-20T22:00:01.999584", "MEAN_MOTION": 15.39592697, "ECCENTRICITY": 0.00012027, "INCLINATION": 53.1589, "RA_OF_ASC_NODE": 148.2901, "ARG_OF_PERICENTER": 71.1451, "MEAN_ANOMALY": 211.1649, "EPHEMERIS_TYPE": 0, "CLASSIFICATION_TYPE": "U", "NORAD_CAT_ID": 66637, "ELEMENT_SET_NO": 999, "REV_AT_EPOCH": 555, "BSTAR": 0.0014718627, "MEAN_MOTION_DOT": 0.00058876, "MEAN_MOTION_DDOT": 0}, "tle": {"line1": "1 66637U 25271W   25354.91668981  .00058876  00000+0  14719-2 0  9999", "line2": "2 66637  53.1589 148.2901 0001202  71.1451 211.1649 15.39592697  5555"}}, "geometry": {"type": "Point", "coordinates": [130.65098981139982, -19.912190104436554]}}, {"type": "Feature", "properties": {"norad_id": 66638, "name": "STARLINK-35972", "group": "last-30-days", "lat": 20.697110939531825, "lon": 162.76202751572976, "alt_km": 444.8397016071149, "timestamp": "2025-12-21T07:34:33.300534+00:00", "meta": {"OBJECT_NAME": "STARLINK-35972", "OBJECT_ID": "2025-271X", "EPOCH": "2025-12-20T22:00:01.999584", "MEAN_MOTION": 15.39585653, "ECCENTRICITY": 0.00011781, "INCLINATION": 53.1594, "RA_OF_ASC_NODE": 148.1878, "ARG_OF_PERICENTER": 99.26, "MEAN_ANOMALY": 234.46, "EPHEMERIS_TYPE": 0, "CLASSIFICATION_TYPE": "U", "NORAD_CAT_ID": 66638, "ELEMENT_SET_NO": 999, "REV_AT_EPOCH": 555, "BSTAR": 0.0014440561, "MEAN_MOTION_DOT": 0.00057734, "MEAN_MOTION_DDOT": 0}, "tle": {"line1": "1 66638U 25271X   25354.91668981  .00057734  00000+0  14441-2 0  9994", "line2": "2 66638  53.1594 148.1878 0001178  99.2600 234.4600 15.39585653  5552"}}, "geometry": {"type": "Point", "coordinates": [162.76202751572976, 20.697110939531825]}}, {"type": "Feature", "properties": {"norad_id": 66639, "name": "STARLINK-35908", "group": "last-30-days", "lat": 39.15025544515243, "lon": -176.1273866579482, "alt_km": 441.0520949667525, "timestamp": "2025-12-21T07:34:33.300543+00:00", "meta": {"OBJECT_NAME": "STARLINK-35908", "OBJECT_ID": "2025-271Y", "EPOCH": "2025-12-20T22:00:01.999584", "MEAN_MOTION": 15.39588332, "ECCENTRICITY": 0.00015875, "INCLINATION": 53.1595, "RA_OF_ASC_NODE": 148.136, "ARG_OF_PERICENTER": 72.7136, "MEAN_ANOMALY": 286.8456, "EPHEMERIS_TYPE": 0, "CLASSIFICATION_TYPE": "U", "NORAD_CAT_ID": 66639, "ELEMENT_SET_NO": 999, "REV_AT_EPOCH": 555, "BSTAR": 0.0017994533, "MEAN_MOTION_DOT": 0.00072186, "MEAN_MOTION_DDOT": 0}, "tle": {"line1": "1 66639U 25271Y   25354.91668981  .00072186  00000+0  17995-2 0  9990", "line2": "2 66639  53.1595 148.1360 0001587  72.7136 286.8456 15.39588332  5551"}}, "geometry": {"type": "Point", "coordinates": [-176.1273866579482, 39.15025544515243]}}, {"type": "Feature", "properties": {"norad_id": 66640, "name": "STARLINK-35921", "group": "last-30-days", "lat": 0.44327102090137677, "lon": 146.6903308083339, "alt_km": 448.0607104644432, "timestamp": "2025-12-21T07:34:33.300551+00:00", "meta": {"OBJECT_NAME": "STARLINK-35921", "OBJECT_ID": "2025-271Z", "EPOCH": "2025-12-20T22:00:01.999584", "MEAN_MOTION": 15.39591172, "ECCENTRICITY": 9.131e-05, "INCLINATION": 53.1587, "RA_OF_ASC_NODE": 148.2385, "ARG_OF_PERICENTER": 93.0013, "MEAN_ANOMALY": 215.0606, "EPHEMERIS_TYPE": 0, "CLASSIFICATION_TYPE": "U", "NORAD_CAT_ID": 66640, "ELEMENT_SET_NO": 999, "REV_AT_EPOCH": 555, "BSTAR": 0.0014905954, "MEAN_MOTION_DOT": 0.00059634, "MEAN_MOTION_DDOT": 0}, "tle": {"line1": "1 66640U 25271Z   25354.91668981  .00059634  00000+0  14906-2 0  9994", "line2": "2 66640  53.1587 148.2385 0000913  93.0013 215.0606 15.39591172  5551"}}, "geometry": {"type": "Point", "coordinates": [146.6903308083339, 0.44327102090137677]}}, {"type": "Feature", "properties": {"norad_id": 66641, "name": "STARLINK-35923", "group": "last-30-days", "lat": 52.52174043124675, "lon": -111.74501512755035, "alt_km": 421.9472164842073, "timestamp": "2025-12-21T07:34:33.300560+00:00", "meta": {"OBJECT_NAME": "STARLINK-35923", "OBJECT_ID": "2025-271AA", "EPOCH": "2025-12-20T22:00:01.999584", "MEAN_MOTION": 15.45513701, "ECCENTRICITY": 0.00013044, "INCLINATION": 53.1601, "RA_OF_ASC_NODE": 148.0617, "ARG_OF_PERICENTER": 57.1525, "MEAN_ANOMALY": 339.0195, "EPHEMERIS_TYPE": 0, "CLASSIFICATION_TYPE": "U", "NORAD_CAT_ID": 66641, "ELEMENT_SET_NO": 999, "REV_AT_EPOCH": 555, "BSTAR": 0.0015249734, "MEAN_MOTION_DOT": 0.00074632, "MEAN_MOTION_DDOT": 0}, "tle": {"line1": "1 66641U 25271AA  25354.91668981  .00074632  00000+0  15250-2 0  9993", "line2": "2 66641  53.1601 148.0617 0001304  57.1525 339.0195 15.45513701  5558"}}, "geometry": {"type": "Point", "coordinates": [-111.74501512755035, 52.52174043124675]}}, {"type": "Feature", "properties": {"norad_id": 66642, "name": "STARLINK-35926", "group": "last-30-days", "lat": 50.87632830719916, "lon": -101.04015192622606, "alt_km": 417.98651019036333, "timestamp": "2025-12-21T07:34:33.300569+00:00", "meta": {"OBJECT_NAME": "STARLINK-35926", "OBJECT_ID": "2025-271AB", "EPOCH": "2025-12-19T17:55:19.162848", "MEAN_MOTION": 15.47687763, "ECCENTRICITY": 0.0001998, "INCLINATION": 53.1589, "RA_OF_ASC_NODE": 153.6296, "ARG_OF_PERICENTER": 136.7356, "MEAN_ANOMALY": 223.381, "EPHEMERIS_TYPE": 0, "CLASSIFICATION_TYPE": "U", "NORAD_CAT_ID": 66642, "ELEMENT_SET_NO": 999, "REV_AT_EPOCH": 525, "BSTAR": -0.0052165, "MEAN_MOTION_DOT": -0.0026545, "MEAN_MOTION_DDOT": 0}, "tle": {"line1": "1 66642U 25271AB  25353.74674957 -.00265450  00000+0 -52165-2 0  9992", "line2": "2 66642  53.1589 153.6296 0001998 136.7356 223.3810 15.47687763  5252"}}, "geometry": {"type": "Point", "coordinates": [-101.04015192622606, 50.87632830719916]}}, {"type": "Feature", "properties": {"norad_id": 66643, "name": "STARLINK-35918", "group": "last-30-days", "lat": 52.90367107518654, "lon": -116.332160409545, "alt_km": 421.8386553360051, "timestamp": "2025-12-21T07:34:33.300580+00:00", "meta": {"OBJECT_NAME": "STARLINK-35918", "OBJECT_ID": "2025-271AC", "EPOCH": "2025-12-20T21:51:42.043392", "MEAN_MOTION": 15.46268289, "ECCENTRICITY": 0.00020902, "INCLINATION": 53.1597, "RA_OF_ASC_NODE": 148.097, "ARG_OF_PERICENTER": 270.2298, "MEAN_ANOMALY": 89.847, "EPHEMERIS_TYPE": 0, "CLASSIFICATION_TYPE": "U", "NORAD_CAT_ID": 66643, "ELEMENT_SET_NO": 999, "REV_AT_EPOCH": 547, "BSTAR": 0.0010299296, "MEAN_MOTION_DOT": 0.00051438, "MEAN_MOTION_DDOT": 0}, "tle": {"line1": "1 66643U 25271AC  25354.91090328  .00051438  00000+0  10299-2 0  9996", "line2": "2 66643  53.1597 148.0970 0002090 270.2298  89.8470 15.46268289  5470"}}, "geometry": {"type": "Point", "coordinates": [-116.332160409545, 52.90367107518654]}}]}